NORAD_CAT_ID,OBJECT_NAME,OBJECT_TYPE,EPOCH,MEAN_MOTION,ECCENTRICITY,INCLINATION,RA_OF_ASC_NODE,ARG_OF_PERICENTER,MEAN_ANOMALY,BSTAR,MEAN_MOTION_DOT,MEAN_MOTION_DDOT,TLE_LINE0,TLE_LINE1,TLE_LINE2,SEMIMAJOR_AXIS,PERIOD,APOGEE,PERIGEE,DECAYED
53244.0,STARLINK-4125,PAYLOAD,2024-02-25 02:10:02,15.08850357,0.0001625,53.2175,302.3442,105.2627,254.8545,0.00016647,2.363e-05,0.0,0 STARLINK-4125,1 53244U 22086C   24056.09030962  .00002363  00000-0  16647-3 0  9993,2 53244  53.2175 302.3442 0001625 105.2627 254.8545 15.08850357 88481,6917.849,95.437,540.838,538.59,0.0
53244.0,STARLINK-4125,PAYLOAD,2024-02-25 19:39:17,15.08840581,0.0001588,53.2163,299.0729,98.0718,262.0454,0.00015566,2.19e-05,0.0,0 STARLINK-4125,1 53244U 22086C   24056.81895490  .00002190  00000-0  15566-3 0  9995,2 53244  53.2163 299.0729 0001588  98.0718 262.0454 15.08840581 88596,6917.879,95.438,540.842,538.645,0.0
53244.0,STARLINK-4125,PAYLOAD,2024-02-25 22:50:04,15.08834323,0.0001343,53.2149,298.4812,84.8291,275.2855,0.00044609,6.818e-05,0.0,0 STARLINK-4125,1 53244U 22086C   24056.95144003  .00006818  00000-0  44609-3 0  9998,2 53244  53.2149 298.4812 0001343  84.8291 275.2855 15.08834323 89111,6917.898,95.438,540.692,538.834,0.0
53244.0,STARLINK-4125,PAYLOAD,2024-02-26 21:05:28,15.08838142,0.0001505,53.2157,294.3167,95.3446,264.7718,-4.1629e-06,-3.54e-06,0.0,0 STARLINK-4125,1 53244U 22086C   24057.87879680 -.00000354  00000-0 -41629-5 0  9998,2 53244  53.2157 294.3167 0001505  95.3446 264.7718 15.08838142 89256,6917.886,95.438,540.792,538.71,0.0
53244.0,STARLINK-4125,PAYLOAD,2024-02-27 01:51:37,15.0883706,0.000141,53.2172,293.4248,95.5768,264.5385,0.00010936,1.453e-05,0.0,0 STARLINK-4125,1 53244U 22086C   24058.07751770  .00001453  00000-0  10936-3 0  9994,2 53244  53.2172 293.4248 0001410  95.5768 264.5385 15.08837060 88780,6917.889,95.438,540.73,538.779,0.0
53244.0,STARLINK-4125,PAYLOAD,2024-02-27 08:13:10,15.08837594,0.000135,53.2164,292.2354,86.0641,274.0505,0.00010833,1.436e-05,0.0,0 STARLINK-4125,1 53244U 22086C   24058.34247850  .00001436  00000-0  10833-3 0  9990,2 53244  53.2164 292.2354 0001350  86.0641 274.0505 15.08837594 89327,6917.888,95.438,540.687,538.819,0.0
53244.0,STARLINK-4125,PAYLOAD,2024-02-27 22:31:38,15.08836954,0.0001409,53.2172,289.561,90.8565,269.2589,2.1024e-05,4.7e-07,0.0,0 STARLINK-4125,1 53244U 22086C   24058.93864330  .00000047  00000-0  21024-4 0  9995,2 53244  53.2172 289.5610 0001409  90.8565 269.2589 15.08836954 89410,6917.89,95.438,540.729,538.78,0.0
53244.0,STARLINK-4125,PAYLOAD,2024-02-28 08:03:57,15.08839154,0.0001418,53.2171,287.7762,89.1798,270.9356,2.3271e-05,8.2e-07,0.0,0 STARLINK-4125,1 53244U 22086C   24059.33608244  .00000082  00000-0  23271-4 0  9995,2 53244  53.2171 287.7762 0001418  89.1798 270.9356 15.08839154 88972,6917.883,95.438,540.729,538.767,0.0
53244.0,STARLINK-4125,PAYLOAD,2024-02-28 22:22:25,15.08840513,0.0001464,53.217,285.0997,92.5932,267.5228,0.00011446,1.534e-05,0.0,0 STARLINK-4125,1 53244U 22086C   24059.93224145  .00001534  00000-0  11446-3 0  9998,2 53244  53.2170 285.0997 0001464  92.5932 267.5228 15.08840513 89568,6917.879,95.438,540.757,538.731,0.0
53244.0,STARLINK-4125,PAYLOAD,2024-02-29 07:54:44,15.08836425,0.000148,53.2167,283.3154,92.9821,267.134,0.00019606,2.833e-05,0.0,0 STARLINK-4125,1 53244U 22086C   24060.32968355  .00002833  00000-0  19606-3 0  9990,2 53244  53.2167 283.3154 0001480  92.9821 267.1340 15.08836425 89624,6917.891,95.438,540.78,538.732,0.0
53244.0,STARLINK-4125,PAYLOAD,2024-02-29 20:37:49,15.08838607,0.0001439,53.2163,280.9358,86.3939,273.7218,7.3472e-05,8.82e-06,0.0,0 STARLINK-4125,1 53244U 22086C   24060.85960520  .00000882  00000-0  73472-4 0  9998,2 53244  53.2163 280.9358 0001439  86.3939 273.7218 15.08838607 89205,6917.885,95.438,540.745,538.754,0.0
53244.0,STARLINK-4125,PAYLOAD,2024-02-29 23:48:36,15.08839701,0.0001439,53.2162,280.341,85.6987,274.417,7.78e-05,9.5e-06,0.0,0 STARLINK-4125,1 53244U 22086C   24060.99208441  .00000950  00000-0  77800-4 0  9995,2 53244  53.2162 280.3410 0001439  85.6987 274.4170 15.08839701 89720,6917.881,95.438,540.742,538.751,0.0
53244.0,STARLINK-4125,PAYLOAD,2024-03-01 22:03:59,15.08848305,0.000157,53.2172,276.1762,83.8993,276.2178,8.4395e-05,1.056e-05,0.0,0 STARLINK-4125,1 53244U 22086C   24061.91943767  .00001056  00000-0  84395-4 0  9990,2 53244  53.2172 276.1762 0001570  83.8993 276.2178 15.08848305 89860,6917.855,95.437,540.806,538.634,0.0
53244.0,STARLINK-4125,PAYLOAD,2024-03-02 20:19:23,15.08843163,0.0001751,53.2176,272.015,72.4963,287.6221,5.249e-05,5.47e-06,0.0,0 STARLINK-4125,1 53244U 22086C   24062.84680142  .00000547  00000-0  52490-4 0  9993,2 53244  53.2176 272.0150 0001751  72.4963 287.6221 15.08843163 89505,6917.871,95.437,540.947,538.524,0.0
53244.0,STARLINK-4125,PAYLOAD,2024-03-03 13:48:38,15.08812039,0.0001616,53.2164,268.7433,107.846,252.2708,0.00040592,6.173e-05,0.0,0 STARLINK-4125,1 53244U 22086C   24063.57544233  .00006173  00000-0  40592-3 0  9994,2 53244  53.2164 268.7433 0001616 107.8460 252.2708 15.08812039 90118,6917.966,95.439,540.949,538.713,0.0
53244.0,STARLINK-4125,PAYLOAD,2024-03-03 20:10:10,15.08846516,0.0001421,53.2164,267.5568,85.5869,274.5285,8.564e-06,-1.52e-06,0.0,0 STARLINK-4125,1 53244U 22086C   24063.84039796 -.00000152  00000-0  85640-5 0  9994,2 53244  53.2164 267.5568 0001421  85.5869 274.5285 15.08846516 90151,6917.86,95.437,540.709,538.742,0.0
53244.0,STARLINK-4125,PAYLOAD,2024-03-04 20:00:56,15.08849418,0.0001294,53.2173,263.0935,109.4494,250.6638,6.0734e-05,6.79e-06,0.0,0 STARLINK-4125,1 53244U 22086C   24064.83399068  .00000679  00000-0  60734-4 0  9994,2 53244  53.2173 263.0935 0001294 109.4494 250.6638 15.08849418 89809,6917.852,95.437,540.612,538.821,0.0
53244.0,STARLINK-4125,PAYLOAD,2024-03-05 13:30:12,15.08837603,0.0001272,53.2159,259.822,105.5283,254.585,3.6544e-05,2.94e-06,0.0,0 STARLINK-4125,1 53244U 22086C   24065.56264161  .00000294  00000-0  36544-4 0  9995,2 53244  53.2159 259.8220 0001272 105.5283 254.5850 15.08837603 90413,6917.888,95.438,540.633,538.873,0.0
53244.0,STARLINK-4125,PAYLOAD,2024-03-05 19:51:44,15.08836411,0.0001339,53.2171,258.6352,94.0283,266.0862,4.7451e-06,-2.12e-06,0.0,0 STARLINK-4125,1 53244U 22086C   24065.82760369 -.00000212  00000-0  47451-5 0  9996,2 53244  53.2171 258.6352 0001339  94.0283 266.0862 15.08836411 89950,6917.891,95.438,540.683,538.83,0.0
53244.0,STARLINK-4125,PAYLOAD,2024-03-06 05:24:03,15.08842874,0.0001248,53.2167,256.8482,90.9911,269.1224,6.0835e-05,6.81e-06,0.0,0 STARLINK-4125,1 53244U 22086C   24066.22503809  .00000681  00000-0  60835-4 0  9994,2 53244  53.2167 256.8482 0001248  90.9911 269.1224 15.08842874 90016,6917.872,95.437,540.6,538.873,0.0
53244.0,STARLINK-4125,PAYLOAD,2024-03-06 13:20:57,15.08847945,0.0001097,53.2164,255.3607,96.1548,263.9569,0.00025475,3.77e-05,0.0,0 STARLINK-4125,1 53244U 22086C   24066.55622652  .00003770  00000-0  25475-3 0  9990,2 53244  53.2164 255.3607 0001097  96.1548 263.9569 15.08847945 90560,6917.856,95.437,540.48,538.962,0.0
53244.0,STARLINK-4125,PAYLOAD,2024-03-06 19:42:29,15.08859777,0.0001223,53.2166,254.1738,106.2683,253.8443,0.00023391,3.439e-05,0.0,0 STARLINK-4125,1 53244U 22086C   24066.82117871  .00003439  00000-0  23391-3 0  9999,2 53244  53.2166 254.1738 0001223 106.2683 253.8443 15.08859777 90103,6917.82,95.436,540.531,538.839,0.0
53244.0,STARLINK-4125,PAYLOAD,2024-03-07 05:14:50,15.08839345,0.0001354,53.2163,252.3862,79.3747,280.7397,4.5818e-05,4.41e-06,0.0,0 STARLINK-4125,1 53244U 22086C   24067.21863549  .00000441  00000-0  45818-4 0  9992,2 53244  53.2163 252.3862 0001354  79.3747 280.7397 15.08839345 90661,6917.882,95.438,540.684,538.811,0.0
53244.0,STARLINK-4125,PAYLOAD,2024-03-08 01:54:53,15.08819258,0.0001279,53.216,248.5204,82.6668,277.447,-9.9231e-05,-1.866e-05,0.0,0 STARLINK-4125,1 53244U 22086C   24068.07978139 -.00001866  00000-0 -99231-4 0  9991,2 53244  53.2160 248.5204 0001279  82.6668 277.4470 15.08819258 90295,6917.944,95.439,540.694,538.924,0.0
53244.0,STARLINK-4125,PAYLOAD,2024-03-08 11:27:13,15.08811333,7.77e-05,53.2168,246.7333,73.246,286.8618,-0.00022825,-3.915e-05,0.0,0 STARLINK-4125,1 53244U 22086C   24068.47723600 -.00003915  00000-0 -22825-3 0  9997,2 53244  53.2168 246.7333 0000777  73.2460 286.8618 15.08811333 90355,6917.968,95.439,540.371,539.295,0.0
53244.0,STARLINK-4125,PAYLOAD,2024-03-08 17:48:43,15.08844951,0.0001305,53.2162,245.5497,94.4673,265.6468,-1.7536e-05,-5.67e-06,0.0,0 STARLINK-4125,1 53244U 22086C   24068.74216884 -.00000567  00000-0 -17536-4 0  9992,2 53244  53.2162 245.5497 0001305  94.4673 265.6468 15.08844951 90390,6917.865,95.437,540.633,538.827,0.0
53244.0,STARLINK-4125,PAYLOAD,2024-03-09 11:17:57,15.08835783,0.0001302,53.2156,242.2749,94.214,265.9001,0.0003725,5.645e-05,0.0,0 STARLINK-4125,1 53244U 22086C   24069.47080953  .00005645  00000-0  37250-3 0  9993,2 53244  53.2156 242.2749 0001302  94.2140 265.9001 15.08835783 91009,6917.893,95.438,540.659,538.858,0.0
53244.0,STARLINK-4125,PAYLOAD,2024-03-09 17:39:29,15.08842613,0.0001415,53.2147,241.087,95.1516,264.9638,0.00039381,5.986e-05,0.0,0 STARLINK-4125,1 53244U 22086C   24069.73576339  .00005986  00000-0  39381-3 0  9995,2 53244  53.2147 241.0870 0001415  95.1516 264.9638 15.08842613 91042,6917.872,95.437,540.716,538.759,0.0
53244.0,STARLINK-4125,PAYLOAD,2024-03-10 11:08:47,15.08756117,0.0004394,53.214,237.8141,101.328,258.8206,0.0013245,0.00020809,0.0,0 STARLINK-4125,1 53244U 22086C   24070.46444282  .00020809  00000-0  13245-2 0  9999,2 53244  53.2140 237.8141 0004394 101.3280 258.8206 15.08756117 90658,6918.137,95.443,543.042,536.962,0.0
53244.0,STARLINK-4125,PAYLOAD,2024-03-10 20:41:04,15.08845688,0.0001377,53.2141,236.0314,101.4894,258.6253,7.1022e-05,8.43e-06,0.0,0 STARLINK-4125,1 53244U 22086C   24070.86185272  .00000843  00000-0  71022-4 0  9999,2 53244  53.2141 236.0314 0001377 101.4894 258.6253 15.08845688 90711,6917.863,95.437,540.681,538.775,0.0
